LYNK TOWER 4            
1 55034U 23001AB  26068.67743801  .00009160  00000+0  30014-3 0  9997
2 55034  97.3324 128.5940 0010321 112.3386 247.8950 15.31819885176588
STARLINK-31890          
1 59785U 24093D   26068.41865880 -.00003501  00000+0 -11779-3 0  9992
2 59785  42.9980 206.9937 0001325 291.6017  68.4693 15.27575981102695
